#aV2011 11 12  0  0   .00000000      96 DD+AD WGS84 FIT  NGA
## 1661 518400.00000000   900.00000000 55877  .0000000000000
+   31     1  2  3  4  5  6  7  8  9 10 11 12 13 14 15 16 17
+         18 19 20 21 22 23 25 26 27 28 29 30 31 32  0  0  0
+          0  0  0  0  0  0  0  0  0  0  0  0  0  0  0  0  0
+          0  0  0  0  0  0  0  0  0  0  0  0  0  0  0  0  0
+          0  0  0  0  0  0  0  0  0  0  0  0  0  0  0  0  0
++         0  0  0  0  0  0  0  0  0  0  0  0  0  0  0  0  0
++         0  0  0  0  0  0  0  0  0  0  0  0  0  0  0  0  0
++         0  0  0  0  0  0  0  0  0  0  0  0  0  0  0  0  0
++         0  0  0  0  0  0  0  0  0  0  0  0  0  0  0  0  0
++         0  0  0  0  0  0  0  0  0  0  0  0  0  0  0  0  0
%c cc cc ccc ccc cccc cccc cccc cccc ccccc ccccc ccccc ccccc
%c cc cc ccc ccc cccc cccc cccc cccc ccccc ccccc ccccc ccccc
%f  0.0000000  0.000000000  0.00000000000  0.000000000000000
%f  0.0000000  0.000000000  0.00000000000  0.000000000000000
%i    0    0    0    0      0      0      0      0         0
%i    0    0    0    0      0      0      0      0         0
/*      NGA, ST. LOUIS,MO.                                  
/*   EPHEMERIS COMPUTED FROM  3 DAYS OF DATA                
/* CCCCCCCCCCCCCCCCCCCCCCCCCCCCCCCCCCCCCCCCCCCCCCCCCCCCCCCCC
/* CCCCCCCCCCCCCCCCCCCCCCCCCCCCCCCCCCCCCCCCCCCCCCCCCCCCCCCCC
*  2011 11 12  3 45   .00000000                                                 
P  1 -14853.543043   3367.961414  21743.824977     88.504399                    
V  1  -7107.123225 -26720.419662   -710.467299       .219505                    
P  2  14007.629977  19897.918597 -11135.890938    365.212112                    
V  2   1234.126968  14322.564232  26456.047918       .018091                    
P  3 -21664.400916 -11389.094205 -11118.608404    793.875534                    
V  3  13690.703821  -1048.544234 -26404.059266       .051752                    
P  4   6230.490067  25616.731100    571.409255      1.373252                    
V  4  -3977.087148    -10.890681  31443.297679       .112353                    
P  5  14363.266670   7018.217475 -21245.580735   -244.059533                    
V  5 -18763.653761  19343.388895  -6178.408532      -.049893                    
P  6 -18332.553864 -13968.869843 -13287.527680      1.156441                    
V  6  17229.696538    996.438386 -24313.715419       .057639                    
P  7  -8019.464087  17852.335201 -17820.531604     36.880855                    
V  7  -6935.983615 -21692.897583 -18826.115593       .021837                    
P  8  -2320.861365  24298.029162  -9669.136483       .060883                    
V  8  -3945.663172 -12015.548873 -29641.450717       .001570                    
P  9  15048.794289   1302.677060  21297.976251    117.788555                    
V  9   7062.063591  27397.917565  -6524.665114       .024578                    
P 10  -2949.217651  19928.327811 -17338.153756    -18.807040                    
V 10 -17249.972544  13430.545078  19006.668000      -.010878                    
P 11 -18796.751518  -2935.323878  18285.193530   -203.186129                    
V 11 -10072.446357 -22081.562987 -13291.729471      -.034610                    
P 12  21608.274434  -8894.605546  12466.864470     34.184477                    
V 12 -10131.124301  12359.355883  26560.740462       .022937                    
P 13 -16749.275247   7433.015304 -19393.692841    241.910354                    
V 13 -22420.022002  -9255.645674  15845.847476      -.019665                    
P 14  -3568.665735 -16106.553362  21027.209341    180.854759                    
V 14  24980.498705   7915.286346  10249.378747       .017912                    
P 15  26106.760619   3636.085529   4024.718305    -99.615767                    
V 15   4184.327602   4174.468120 -30789.799083       .011063                    
P 16 -13799.660875  -7066.452662 -21589.622237   -208.406322                    
V 16  19971.771905 -18690.014309  -6356.613191      -.020237                    
P 17   2601.425229  16207.564505  21072.369382    166.158568                    
V 17 -25366.599137  -7225.524683   8514.341525      -.020114                    
P 18  16046.443864 -20425.676829   4847.708347    166.667641                    
V 18   6911.701634  -1226.184341 -30514.443878       .018231                    
P 19 -25465.901487  -7992.782082   1924.684304   -203.981189                    
V 19  -1415.950046  -3252.716878 -31348.811195      -.039972                    
P 20 -21425.263843  10404.333437  11529.342064     55.957424                    
V 20   7853.493238 -13129.397704  26174.506989       .006740                    
P 21   5766.897115 -20951.303746 -14415.653457   -183.929157                    
V 21   7905.707113  18005.511088 -22925.004101      -.024743                    
P 22   4537.527080 -20812.459332  15975.184434    143.475700                    
V 22  16297.165238 -12039.170399 -20652.092988       .000290                    
P 23 -23759.755642   1887.479630 -12065.735629    260.100693                    
V 23 -14059.036397  -6201.852155  26299.427226      -.032494                    
P 25  19962.167674 -17234.187704   2976.121245     27.304713                    
V 25   -800.882846   4570.993847  31603.466643       .013006                    
P 26  22120.965593  13377.273961  -7522.196726   -223.053343                    
V 26  -8617.908295  -1543.235364 -30165.319169      -.134203                    
P 27  16451.048642   8256.868345  19937.967058    324.757326                    
V 27   6321.050631  22897.748491 -14809.737831       .039554                    
P 28  -8217.672069  20771.244853  14705.353172     83.489225                    
V 28 -14406.253126  10635.135193 -24192.083637       .032169                    
P 29  17169.862587  -8059.134507 -18513.896003    256.640899                    
V 29  22068.222745   8634.522442  16688.451281       .033193                    
P 30    454.188144 -20119.329322 -17743.483313     50.762612                    
V 30  15107.346492 -15746.140307  18633.989297      -.084665                    
P 31  -7910.059803 -25079.986294  -2547.023014    168.215134                    
V 31   1478.198243  -3963.428840  32113.778309       .050895                    
P 32 -20086.436648    618.623621  17383.133555   -360.332108                    
V 32  15491.131311 -15449.766248  19166.930793      -.060602                    
EOF
